NORAD_CAT_ID,OBJECT_NAME,OBJECT_TYPE,EPOCH,MEAN_MOTION,ECCENTRICITY,INCLINATION,RA_OF_ASC_NODE,ARG_OF_PERICENTER,MEAN_ANOMALY,BSTAR,MEAN_MOTION_DOT,MEAN_MOTION_DDOT,TLE_LINE0,TLE_LINE1,TLE_LINE2,SEMIMAJOR_AXIS,PERIOD,APOGEE,PERIGEE,DECAYED
52352.0,STARLINK-3838,PAYLOAD,2022-12-13 00:50:23,15.08840552,0.0002924,53.2154,108.2704,51.9408,308.1847,5.6237e-05,6.07e-06,0.0,0 STARLINK-3838,1 52352U 22045X   22347.03499948  .00000607  00000-0  56237-4 0  9994,2 52352  53.2154 108.2704 0002924  51.9408 308.1847 15.08840552 37240,6917.879,95.438,541.766,537.721,0.0
52352.0,STARLINK-3838,PAYLOAD,2022-12-13 08:47:19,15.08840852,0.0002898999999999,53.2154,106.7834,53.2786,306.8472,4.1486e-06,-2.23e-06,0.0,0 STARLINK-3838,1 52352U 22045X   22347.36619841 -.00000223  00000-0  41486-5 0  9992,2 52352  53.2154 106.7834 0002899  53.2786 306.8472 15.08840852 37299,6917.878000000002,95.438,541.748,537.737,0.0
52352.0,STARLINK-3838,PAYLOAD,2022-12-13 15:08:51,15.08846955,0.0002886,53.2156,105.5943,53.4947,306.631,2.7861e-05,1.55e-06,0.0,0 STARLINK-3838,1 52352U 22045X   22347.63115360  .00000155  00000-0  27861-4 0  9992,2 52352  53.2156 105.5943 0002886  53.4947 306.6310 15.08846955 37330,6917.859,95.437,541.721,537.7280000000002,0.0
52352.0,STARLINK-3838,PAYLOAD,2022-12-14 10:13:29,15.08841016,0.0002878999999999,53.2175,102.0274,52.8771,307.2484,2.6551e-05,1.34e-06,0.0,0 STARLINK-3838,1 52352U 22045X   22348.42603643  .00000134  00000-0  26551-4 0  9998,2 52352  53.2175 102.0274 0002879  52.8771 307.2484 15.08841016 37455,6917.877,95.437,541.734,537.751,0.0
52352.0,STARLINK-3838,PAYLOAD,2022-12-14 14:59:39,15.08834217,0.0002811,53.2169,101.1345,51.6427,308.4817,2.5695e-05,1.2e-06,0.0,0 STARLINK-3838,1 52352U 22045X   22348.62476088  .00000120  00000-0  25695-4 0  9994,2 52352  53.2169 101.1345 0002811  51.6427 308.4817 15.08834217 37489,6917.898,95.438,541.7080000000002,537.818,0.0
52352.0,STARLINK-3838,PAYLOAD,2022-12-15 08:28:56,15.08808102,0.0002829,53.2167,97.8648,49.6057,310.5182,-0.00016187,-2.862e-05,0.0,0 STARLINK-3838,1 52352U 22045X   22349.35342923 -.00002862  00000-0 -16187-3 0  9997,2 52352  53.2167  97.8648 0002829  49.6057 310.5182 15.08808102 37594,6917.978,95.44,541.8,537.886,0.0
52352.0,STARLINK-3838,PAYLOAD,2022-12-15 13:15:13,15.08718684,0.0003998,53.2159,96.9709,81.5107,278.6338,-0.00094332,-0.00015223,0.0,0 STARLINK-3838,1 52352U 22045X   22349.55223805 -.00015223  00000-0 -94332-3 0  9999,2 52352  53.2159  96.9709 0003998  81.5107 278.6338 15.08718684 37628,6918.251,95.445,542.882,537.35,0.0
52352.0,STARLINK-3838,PAYLOAD,2022-12-15 14:50:26,15.08843764,0.0003075,53.2158,96.6728,35.9492,324.1707,0.00010398,1.367e-05,0.0,0 STARLINK-3838,1 52352U 22045X   22349.61836289  .00001367  00000-0  10398-3 0  9994,2 52352  53.2158  96.6728 0003075  35.9492 324.1707 15.08843764 37637,6917.869000000002,95.437,541.861,537.607,0.0
52352.0,STARLINK-3838,PAYLOAD,2022-12-15 16:25:50,15.08836624,0.0002563999999999,53.2156,96.3754,41.06,319.0585,3.6306e-05,2.89e-06,0.0,0 STARLINK-3838,1 52352U 22045X   22349.68460753  .00000289  00000-0  36306-4 0  9990,2 52352  53.2156  96.3754 0002564  41.0600 319.0585 15.08836624 37647,6917.891,95.438,541.529,537.982,0.0
52352.0,STARLINK-3838,PAYLOAD,2022-12-16 13:05:49,15.08850972,0.0002543,53.2157,92.5096,35.6523,324.4639,0.00024593,3.629e-05,0.0,0 STARLINK-3838,1 52352U 22045X   22350.54571175  .00003629  00000-0  24593-3 0  9993,2 52352  53.2157  92.5096 0002543  35.6523 324.4639 15.08850972 37771,6917.847,95.437,541.471,537.953,0.0
52352.0,STARLINK-3838,PAYLOAD,2022-12-16 16:16:36,15.0884232,0.0002504,53.217,91.9161,34.6503,325.4652,0.00016865,2.397e-05,0.0,0 STARLINK-3838,1 52352U 22045X   22350.67819872  .00002397  00000-0  16865-3 0  9990,2 52352  53.2170  91.9161 0002504  34.6503 325.4652 15.08842320 37792,6917.873000000001,95.437,541.471,538.006,0.0
52352.0,STARLINK-3838,PAYLOAD,2022-12-17 12:56:38,15.08825377,0.0002532,53.2155,88.0515,35.9336,324.1826,0.00026415,3.917e-05,0.0,0 STARLINK-3838,1 52352U 22045X   22351.53933049  .00003917  00000-0  26415-3 0  9990,2 52352  53.2155  88.0515 0002532  35.9336 324.1826 15.08825377 37921,6917.925,95.438,541.5419999999998,538.038,0.0
52352.0,STARLINK-3838,PAYLOAD,2022-12-18 00:04:19,15.08846548,0.0002414,53.2159,85.9688,31.8741,328.2397,3.2236e-06,-2.37e-06,0.0,0 STARLINK-3838,1 52352U 22045X   22352.00300174 -.00000237  00000-0  32236-5 0  9993,2 52352  53.2159  85.9688 0002414  31.8741 328.2397 15.08846548 37994,6917.86,95.437,541.395,538.055,0.0
52352.0,STARLINK-3838,PAYLOAD,2022-12-18 12:47:24,15.08847803,0.000257,53.2164,83.5896,35.7389,324.3775,-8.717700000000001e-05,-1.676e-05,0.0,0 STARLINK-3838,1 52352U 22045X   22352.53292141 -.00001676  00000-0 -87177-4 0  9997,2 52352  53.2164  83.5896 0002570  35.7389 324.3775 15.08847803 38071,6917.857,95.437,541.499,537.944,0.0
52352.0,STARLINK-3838,PAYLOAD,2022-12-18 17:33:34,15.088416199999998,0.0002557,53.216,82.6968,29.1801,330.9334,-0.00011721,-2.154e-05,0.0,0 STARLINK-3838,1 52352U 22045X   22352.73164546 -.00002154  00000-0 -11721-3 0  9999,2 52352  53.2160  82.6968 0002557  29.1801 330.9334 15.08841620 38107,6917.875,95.437,541.509,537.972,0.0
52352.0,STARLINK-3838,PAYLOAD,2022-12-19 06:16:39,15.08836291,0.0002507,53.2165,80.3194,24.9521,335.1592,6.0818e-05,6.8e-06,0.0,0 STARLINK-3838,1 52352U 22045X   22353.26156456  .00000680  00000-0  60818-4 0  9991,2 52352  53.2165  80.3194 0002507  24.9521 335.1592 15.08836291 38184,6917.892,95.438,541.491,538.0219999999998,0.0
52352.0,STARLINK-3838,PAYLOAD,2022-12-19 09:27:25,15.08838604,0.0002503,53.2162,79.7246,26.7408,333.3713,7.5721e-05,9.17e-06,0.0,0 STARLINK-3838,1 52352U 22045X   22353.39404291  .00000917  00000-0  75721-4 0  9990,2 52352  53.2162  79.7246 0002503  26.7408 333.3713 15.08838604 38209,6917.885,95.438,541.481,538.018,0.0
52352.0,STARLINK-3838,PAYLOAD,2022-12-20 12:28:57,15.0884907,0.0002583,53.2166,74.6695,24.3744,335.737,0.00018592,2.673e-05,0.0,0 STARLINK-3838,1 52352U 22045X   22354.52010834  .00002673  00000-0  18592-3 0  9995,2 52352  53.2166  74.6695 0002583  24.3744 335.7370 15.08849070 38372,6917.853,95.437,541.505,537.931,0.0
52352.0,STARLINK-3838,PAYLOAD,2022-12-20 15:39:43,15.08845723,0.0002643,53.2169,74.0747,23.8097,336.3017,0.00014261,1.982e-05,0.0,0 STARLINK-3838,1 52352U 22045X   22354.65258852  .00001982  00000-0  14261-3 0  9994,2 52352  53.2169  74.0747 0002643  23.8097 336.3017 15.08845723 38397,6917.863,95.437,541.556,537.9,0.0
52352.0,STARLINK-3838,PAYLOAD,2022-12-21 05:58:13,15.08830565,0.000243,53.2165,71.3955,22.93,337.18,-1.0956e-05,-4.63e-06,0.0,0 STARLINK-3838,1 52352U 22045X   22355.24876513 -.00000463  00000-0 -10956-4 0  9993,2 52352  53.2165  71.3955 0002430  22.9300 337.1800 15.08830565 38482,6917.909000000002,95.438,541.455,538.0930000000002,0.0
52352.0,STARLINK-3838,PAYLOAD,2022-12-21 12:19:46,15.08821623,0.0002666,53.2166,70.2076,20.2363,339.8735,-0.00016478,-2.909e-05,0.0,0 STARLINK-3838,1 52352U 22045X   22355.51373825 -.00002909  00000-0 -16478-3 0  9992,2 52352  53.2166  70.2076 0002666  20.2363 339.8735 15.08821623 38522,6917.937,95.439,541.646,537.957,0.0
52352.0,STARLINK-3838,PAYLOAD,2022-12-22 08:59:46,15.08839373,0.0002595,53.2165,66.3415,22.1853,337.9251,-7.339899999999999e-05,-1.456e-05,0.0,0 STARLINK-3838,1 52352U 22045X   22356.37484865 -.00001456  00000-0 -73399-4 0  9996,2 52352  53.2165  66.3415 0002595  22.1853 337.9251 15.08839373 38657,6917.882,95.438,541.5419999999998,537.952,0.0
52352.0,STARLINK-3838,PAYLOAD,2022-12-22 10:35:09,15.08841129,0.0002621,53.2165,66.0443,22.8423,337.2685,-4.502600000000001e-05,-1.005e-05,0.0,0 STARLINK-3838,1 52352U 22045X   22356.44108734 -.00001005  00000-0 -45026-4 0  9998,2 52352  53.2165  66.0443 0002621  22.8423 337.2685 15.08841129 38662,6917.877,95.437,541.555,537.929,0.0
52352.0,STARLINK-3838,PAYLOAD,2022-12-22 13:45:56,15.08838756,0.0002792,53.2162,65.4498,21.7873,338.3238,2.8815e-05,1.7e-06,0.0,0 STARLINK-3838,1 52352U 22045X   22356.57356586  .00000170  00000-0  28815-4 0  9999,2 52352  53.2162  65.4498 0002792  21.7873 338.3238 15.08838756 38688,6917.884,95.438,541.681,537.818,0.0
52352.0,STARLINK-3838,PAYLOAD,2022-12-23 10:25:57,15.08834159,0.0002765,53.2162,61.5841,24.7506,335.3618,0.00037518,5.687e-05,0.0,0 STARLINK-3838,1 52352U 22045X   22357.43469546  .00005687  00000-0  37518-3 0  9993,2 52352  53.2162  61.5841 0002765  24.7506 335.3618 15.08834159 38810,6917.898,95.438,541.6759999999998,537.85,0.0
52352.0,STARLINK-3838,PAYLOAD,2022-12-23 16:47:30,15.088373,0.0002821,53.2158,60.3952,25.2956,334.8174,0.00028897,4.313e-05,0.0,0 STARLINK-3838,1 52352U 22045X   22357.69965631  .00004313  00000-0  28897-3 0  9992,2 52352  53.2158  60.3952 0002821  25.2956 334.8174 15.08837300 38859,6917.889,95.438,541.705,537.802,0.0
52352.0,STARLINK-3838,PAYLOAD,2022-12-24 10:16:44,15.08854562,0.0002786,53.2156,57.1247,25.6331,334.4799,0.0004074,6.204e-05,0.0,0 STARLINK-3838,1 52352U 22045X   22358.42828885  .00006204  00000-0  40740-3 0  9995,2 52352  53.2156  57.1247 0002786  25.6331 334.4799 15.08854562 38969,6917.8359999999975,95.437,541.628,537.774,0.0
52352.0,STARLINK-3838,PAYLOAD,2022-12-24 11:52:07,15.08851239,0.0002859,53.2151,56.8285,21.013,339.0979,0.00031715,4.764e-05,0.0,0 STARLINK-3838,1 52352U 22045X   22358.49452965  .00004764  00000-0  31715-3 0  9995,2 52352  53.2151  56.8285 0002859  21.0130 339.0979 15.08851239 38970,6917.846,95.437,541.689,537.7330000000002,0.0
52352.0,STARLINK-3838,PAYLOAD,2022-12-24 15:02:53,15.08848431,0.0002833,53.2152,56.2344,21.7642,338.347,0.00023927,3.523e-05,0.0,0 STARLINK-3838,1 52352U 22045X   22358.62700936  .00003523  00000-0  23927-3 0  9992,2 52352  53.2152  56.2344 0002833  21.7642 338.3470 15.08848431 38998,6917.855,95.437,541.679,537.76,0.0
